OBJECT_NAME,OBJECT_ID,EPOCH,MEAN_MOTION,ECCENTRICITY,INCLINATION,RA_OF_ASC_NODE,ARG_OF_PERICENTER,MEAN_ANOMALY,EPHEMERIS_TYPE,CLASSIFICATION_TYPE,NORAD_CAT_ID,ELEMENT_SET_NO,REV_AT_EPOCH,BSTAR,MEAN_MOTION_DOT,MEAN_MOTION_DDOT
2026-132G,2026-132G,2026-07-08T10:26:01.194720,15.07822118,.00227243,97.6584,252.9897,215.5682,144.4033,0,U,69676,999,397,.42280853E-3,.6448E-4,0
STARLINK-38005,2026-145A,2026-07-10T06:50:31.496928,15.75235100,.00015976,97.2853,37.8787,63.0728,297.0701,0,U,69677,999,240,.95806105E-3,.145516E-2,0
STARLINK-38009,2026-145B,2026-07-10T06:47:59.043264,15.75237919,.00013209,97.2848,37.8814,64.9975,295.1428,0,U,69678,999,240,.10881896E-2,.165711E-2,0
STARLINK-37998,2026-145C,2026-07-10T00:38:30.555456,15.75212208,.0001442,97.2844,37.6191,80.3698,279.7730,0,U,69679,999,236,.68052779E-3,.102703E-2,0
STARLINK-37994,2026-145D,2026-07-10T06:00:02.000160,15.75268186,.00015393,97.2852,37.8507,85.4899,91.9397,0,U,69680,999,363,-.13022774E-2,-.190755E-2,0
STARLINK-37992,2026-145E,2026-07-10T06:00:02.000160,15.75263506,.00015696,97.2851,37.8516,92.6974,86.7348,0,U,69681,999,363,-.12452582E-2,-.182546E-2,0
STARLINK-37997,2026-145F,2026-07-10T06:00:02.000160,15.75279539,.00014657,97.2849,37.8532,93.3648,90.0588,0,U,69682,999,363,-.1419309E-2,-.207581E-2,0
STARLINK-37990,2026-145G,2026-07-09T12:27:10.438848,15.75198405,.00013683,97.2849,37.0844,111.6283,248.5128,0,U,69683,999,228,.11691499E-2,.178003E-2,0
STARLINK-37951,2026-145H,2026-07-09T12:26:09.417120,15.75198683,.0001027,97.2860,37.0861,93.7044,266.4339,0,U,69684,999,228,.1040173E-2,.15798E-2,0
STARLINK-37957,2026-145J,2026-07-10T06:42:23.622912,15.75248786,.0001686,97.2850,37.8864,52.7220,307.4199,0,U,69685,999,240,.11406581E-2,.17396E-2,0
STARLINK-37968,2026-145K,2026-07-10T06:33:45.152064,15.75237149,.00015088,97.2850,37.8955,106.1897,253.9534,0,U,69686,999,240,.10678024E-2,.162538E-2,0
STARLINK-37977,2026-145L,2026-07-09T21:23:51.759456,15.75253257,.00009398,97.2853,37.4964,66.5603,293.5761,0,U,69687,999,234,.16773458E-2,.258488E-2,0
STARLINK-37908,2026-145M,2026-07-09T22:52:17.642208,15.75192303,.00013379,97.2861,37.5669,69.8088,290.3321,0,U,69688,999,235,.15568983E-2,.238725E-2,0
STARLINK-37979,2026-145N,2026-07-09T12:11:25.261728,15.75215633,.00013313,97.2853,37.0997,87.9068,272.2349,0,U,69689,999,228,.14118192E-2,.216107E-2,0
STARLINK-37940,2026-145P,2026-07-10T07:59:08.169216,15.75197916,.00013551,97.2853,37.9685,69.2669,290.8741,0,U,69690,999,241,.50961833E-3,.76594E-3,0
STARLINK-37961,2026-145Q,2026-07-10T07:54:34.015104,15.75212500,.00017748,97.2857,37.9716,47.7226,312.4189,0,U,69691,999,241,.78220164E-3,.118287E-2,0
STARLINK-37787,2026-145R,2026-07-10T07:51:30.742560,15.75207920,.00010579,97.2869,37.9754,38.5782,321.5558,0,U,69692,999,241,.12024962E-2,.183273E-2,0
STARLINK-37962,2026-145S,2026-07-10T00:11:34.402848,15.75208380,.00010201,97.2848,37.6449,103.4249,256.7130,0,U,69693,999,236,.10315071E-2,.156704E-2,0
STARLINK-37953,2026-145T,2026-07-10T07:53:02.482944,15.75209168,.00017932,97.2857,37.9726,41.0801,319.0599,0,U,69694,999,241,.72546235E-3,.10957E-2,0
STARLINK-37926,2026-145U,2026-07-10T07:51:56.406816,15.74358430,.0016776,97.2819,37.9739,192.8884,167.1954,0,U,69695,999,241,.18916179E-1,.323292E-1,0
STARLINK-37959,2026-145V,2026-07-10T00:13:06.135456,15.75229874,.00016176,97.2858,37.6433,72.8018,287.3425,0,U,69696,999,236,.10980334E-2,.167184E-2,0
STARLINK-37976,2026-145W,2026-07-10T07:46:26.282784,15.75221028,.00015394,97.2845,37.9800,67.7183,292.4245,0,U,69697,999,241,.10965751E-2,.166891E-2,0
STARLINK-37912,2026-145X,2026-07-10T07:44:55.105728,15.75232083,.00012449,97.2855,37.9818,80.8610,279.2796,0,U,69698,999,241,.12152309E-2,.185457E-2,0
STARLINK-37974,2026-145Y,2026-07-10T00:06:30.692160,15.75139175,.00017009,97.2860,37.6500,68.7046,291.4401,0,U,69699,999,236,.2191115E-3,.32606E-3,0
STARLINK-37955,2026-145Z,2026-07-10T06:08:50.964288,15.75170484,.00010614,97.2858,37.9199,89.1975,270.9411,0,U,69700,999,240,.58476798E-3,.87919E-3,0
STRIX-8,2026-146A,2026-07-10T00:58:13.419840,15.04406873,.00079977,41.9901,41.6479,348.2849,11.7791,0,U,69701,999,200,.22442774E-3,.2999E-4,0
ELECTRON R/B,2026-146B,2026-07-08T22:39:31.428864,15.70078173,.01865229,42.0773,41.0282,336.3329,22.9027,0,U,69702,999,192,.8408839E-3,.304904E-2,.34682837E-4
ELECTRON KICK STAGE R/B,2026-146C,2026-07-10T07:13:55.085664,15.04919215,.00097461,41.9885,40.1382,351.0918,8.9735,0,U,69703,999,204,.19299774E-3,.259E-4,0
STARLINK-38055,2026-147A,2026-07-09T20:26:46.858272,15.81111621,.00015668,97.2853,226.9282,14.1077,346.0235,0,U,69704,999,301,.20855822E-2,.42514E-2,0
STARLINK-37898,2026-147B,2026-07-10T07:03:39.460608,15.80842312,.00040676,97.2849,227.3989,341.5212,18.5907,0,U,69705,999,308,.56818576E-3,.110256E-2,0
