2026-132G               
1 69676U 26132G   26189.43473605  .00006448  00000+0  42281-3 0  9997
2 69676  97.6584 252.9897 0022724 215.5682 144.4033 15.07822118  3976
STARLINK-38005          
1 69677U 26145A   26191.28508677  .00145516  00000+0  95806-3 0  9997
2 69677  97.2853  37.8787 0001597  63.0728 297.0701 15.75235100  2400
STARLINK-38009          
1 69678U 26145B   26191.28332226  .00165711  00000+0  10882-2 0  9992
2 69678  97.2848  37.8814 0001320  64.9975 295.1428 15.75237919  2409
STARLINK-37998          
1 69679U 26145C   26191.02674254  .00102703  00000+0  68053-3 0  9991
2 69679  97.2844  37.6191 0001442  80.3698 279.7730 15.75212208  2364
STARLINK-37994          
1 69680U 26145D   26191.25002315 -.00190755  00000+0 -13023-2 0  9993
2 69680  97.2852  37.8507 0001539  85.4899  91.9397 15.75268186  3634
STARLINK-37992          
1 69681U 26145E   26191.25002315 -.00182546  00000+0 -12453-2 0  9999
2 69681  97.2851  37.8516 0001569  92.6974  86.7348 15.75263506  3630
STARLINK-37997          
1 69682U 26145F   26191.25002315 -.00207581  00000+0 -14193-2 0  9990
2 69682  97.2849  37.8532 0001465  93.3648  90.0588 15.75279539  3634
STARLINK-37990          
1 69683U 26145G   26190.51887082  .00178003  00000+0  11691-2 0  9995
2 69683  97.2849  37.0844 0001368 111.6283 248.5128 15.75198405  2286
STARLINK-37951          
1 69684U 26145H   26190.51816455  .00157980  00000+0  10402-2 0  9992
2 69684  97.2860  37.0861 0001027  93.7044 266.4339 15.75198683  2287
STARLINK-37957          
1 69685U 26145J   26191.27944008  .00173960  00000+0  11407-2 0  9995
2 69685  97.2850  37.8864 0001686  52.7220 307.4199 15.75248786  2404
STARLINK-37968          
1 69686U 26145K   26191.27343926  .00162538  00000+0  10678-2 0  9996
2 69686  97.2850  37.8955 0001508 106.1897 253.9534 15.75237149  2402
STARLINK-37977          
1 69687U 26145L   26190.89157129  .00258488  00000+0  16773-2 0  9994
2 69687  97.2853  37.4964 0000939  66.5603 293.5761 15.75253257  2346
STARLINK-37908          
1 69688U 26145M   26190.95298197  .00238725  00000+0  15569-2 0  9997
2 69688  97.2861  37.5669 0001337  69.8088 290.3321 15.75192303  2357
STARLINK-37979          
1 69689U 26145N   26190.50793127  .00216107  00000+0  14118-2 0  9991
2 69689  97.2853  37.0997 0001331  87.9068 272.2349 15.75215633  2284
STARLINK-37940          
1 69690U 26145P   26191.33273344  .00076594  00000+0  50962-3 0  9991
2 69690  97.2853  37.9685 0001355  69.2669 290.8741 15.75197916  2415
STARLINK-37961          
1 69691U 26145Q   26191.32956036  .00118287  00000+0  78220-3 0  9990
2 69691  97.2857  37.9716 0001774  47.7226 312.4189 15.75212500  2414
STARLINK-37787          
1 69692U 26145R   26191.32743915  .00183273  00000+0  12025-2 0  9998
2 69692  97.2869  37.9754 0001057  38.5782 321.5558 15.75207920  2410
STARLINK-37962          
1 69693U 26145S   26191.00803707  .00156704  00000+0  10315-2 0  9999
2 69693  97.2848  37.6449 0001020 103.4249 256.7130 15.75208380  2366
STARLINK-37953          
1 69694U 26145T   26191.32850096  .00109570  00000+0  72546-3 0  9992
2 69694  97.2857  37.9726 0001793  41.0801 319.0599 15.75209168  2419
STARLINK-37926          
1 69695U 26145U   26191.32773619  .03232920  00000+0  18916-1 0  9996
2 69695  97.2819  37.9739 0016776 192.8884 167.1954 15.74358430  2418
STARLINK-37959          
1 69696U 26145V   26191.00909879  .00167184  00000+0  10980-2 0  9991
2 69696  97.2858  37.6433 0001617  72.8018 287.3425 15.75229874  2366
STARLINK-37976          
1 69697U 26145W   26191.32391531  .00166891  00000+0  10966-2 0  9995
2 69697  97.2845  37.9800 0001539  67.7183 292.4245 15.75221028  2419
STARLINK-37912          
1 69698U 26145X   26191.32286002  .00185457  00000+0  12152-2 0  9990
2 69698  97.2855  37.9818 0001244  80.8610 279.2796 15.75232083  2411
STARLINK-37974          
1 69699U 26145Y   26191.00452190  .00032606  00000+0  21911-3 0  9990
2 69699  97.2860  37.6500 0001700  68.7046 291.4401 15.75139175  2369
STARLINK-37955          
1 69700U 26145Z   26191.25614542  .00087919  00000+0  58477-3 0  9995
2 69700  97.2858  37.9199 0001061  89.1975 270.9411 15.75170484  2400
STRIX-8                 
1 69701U 26146A   26191.04043310  .00002999  00000+0  22443-3 0  9992
2 69701  41.9901  41.6479 0007997 348.2849  11.7791 15.04406873  2006
ELECTRON R/B            
1 69702U 26146B   26189.94411376  .00304904  34683-4  84088-3 0  9993
2 69702  42.0773  41.0282 0186522 336.3329  22.9027 15.70078173  1922
ELECTRON KICK STAGE R/B 
1 69703U 26146C   26191.30133201  .00002590  00000+0  19300-3 0  9997
2 69703  41.9885  40.1382 0009746 351.0918   8.9735 15.04919215  2048
STARLINK-38055          
1 69704U 26147A   26190.85193123  .00425140  00000+0  20856-2 0  9994
2 69704  97.2853 226.9282 0001566  14.1077 346.0235 15.81111621  3015
STARLINK-37898          
1 69705U 26147B   26191.29420672  .00110256  00000+0  56819-3 0  9994
2 69705  97.2849 227.3989 0004067 341.5212  18.5907 15.80842312  3088
